{
  "norad_id": 53160,
  "name": "STARLINK-4096",
  "history": [
    {
      "epoch": "2026-05-05T16:28:08.354784Z",
      "apogee_km": 540.5785837701269,
      "perigee_km": 538.9058405766236,
      "latitude_deg": -5.18078827027272e-05,
      "longitude_deg": 157.65821879963906,
      "height_km": 540.6231498738963,
      "semi_major_axis_km": 6917.879212173375,
      "eccentricity": 0.0001209,
      "inclination_deg": 53.2171,
      "raan_deg": 268.2507,
      "arg_perigee_deg": 88.9756,
      "mean_anomaly_deg": 271.1374,
      "mean_motion_rev_day": 15.08840385
    },
    {
      "epoch": "2026-05-06T17:54:19.120896Z",
      "apogee_km": 540.5852132720993,
      "perigee_km": 538.9512040618129,
      "latitude_deg": 4.8110643093685575e-05,
      "longitude_deg": 130.311397532333,
      "height_km": 540.642342416358,
      "semi_major_axis_km": 6917.905208666956,
      "eccentricity": 0.0001181,
      "inclination_deg": 53.2171,
      "raan_deg": 263.4933,
      "arg_perigee_deg": 88.4726,
      "mean_anomaly_deg": 271.6402,
      "mean_motion_rev_day": 15.0883188
    },
    {
      "epoch": "2026-05-07T17:45:06.058080Z",
      "apogee_km": 540.5692390082941,
      "perigee_km": 538.9283165018105,
      "latitude_deg": 4.015382200453523e-05,
      "longitude_deg": 127.17688081454392,
      "height_km": 540.5733438309687,
      "semi_major_axis_km": 6917.885777755052,
      "eccentricity": 0.0001186,
      "inclination_deg": 53.2173,
      "raan_deg": 259.0337,
      "arg_perigee_deg": 85.0097,
      "mean_anomaly_deg": 275.1031,
      "mean_motion_rev_day": 15.08838237
    },
    {
      "epoch": "2026-05-08T17:35:53.036736Z",
      "apogee_km": 540.5796228636036,
      "perigee_km": 538.9165632872273,
      "latitude_deg": -8.976251813857835e-06,
      "longitude_deg": 124.0413607695091,
      "height_km": 540.5582230137791,
      "semi_major_axis_km": 6917.885093075415,
      "eccentricity": 0.0001202,
      "inclination_deg": 53.2173,
      "raan_deg": 254.5733,
      "arg_perigee_deg": 84.0779,
      "mean_anomaly_deg": 276.035,
      "mean_motion_rev_day": 15.08838461
    },
    {
      "epoch": "2026-05-09T15:51:17.106624Z",
      "apogee_km": 540.5511708828826,
      "perigee_km": 538.9448379848527,
      "latitude_deg": -1.2812309770462733e-05,
      "longitude_deg": 145.11301504720123,
      "height_km": 540.6545308062417,
      "semi_major_axis_km": 6917.885004433867,
      "eccentricity": 0.0001161,
      "inclination_deg": 53.2171,
      "raan_deg": 250.4093,
      "arg_perigee_deg": 90.7546,
      "mean_anomaly_deg": 269.3579,
      "mean_motion_rev_day": 15.0883849
    },
    {
      "epoch": "2026-05-10T15:42:04.046400Z",
      "apogee_km": 540.5514493618039,
      "perigee_km": 538.9354324908027,
      "latitude_deg": 3.5324395148710144e-06,
      "longitude_deg": 141.97800776456805,
      "height_km": 540.6525170309562,
      "semi_major_axis_km": 6917.880440926303,
      "eccentricity": 0.0001168,
      "inclination_deg": 53.2171,
      "raan_deg": 245.9492,
      "arg_perigee_deg": 90.9317,
      "mean_anomaly_deg": 269.1809,
      "mean_motion_rev_day": 15.08839983
    },
    {
      "epoch": "2026-05-11T15:32:51.095040Z",
      "apogee_km": 540.5647734092872,
      "perigee_km": 538.9321524400375,
      "latitude_deg": -2.6922958865296277e-05,
      "longitude_deg": 138.84321174856188,
      "height_km": 540.6342073036116,
      "semi_major_axis_km": 6917.885462924662,
      "eccentricity": 0.000118,
      "inclination_deg": 53.2173,
      "raan_deg": 241.4898,
      "arg_perigee_deg": 89.2839,
      "mean_anomaly_deg": 270.8288,
      "mean_motion_rev_day": 15.0883834
    },
    {
      "epoch": "2026-05-12T16:59:01.500000Z",
      "apogee_km": 540.5781433325728,
      "perigee_km": 538.9289182300345,
      "latitude_deg": 2.2664930202623247e-05,
      "longitude_deg": 111.49736635684461,
      "height_km": 540.6481218223173,
      "semi_major_axis_km": 6917.890530781303,
      "eccentricity": 0.0001192,
      "inclination_deg": 53.2171,
      "raan_deg": 236.7319,
      "arg_perigee_deg": 89.909,
      "mean_anomaly_deg": 270.2039,
      "mean_motion_rev_day": 15.08836682
    },
    {
      "epoch": "2026-05-13T12:03:39.501792Z",
      "apogee_km": 540.5780321449929,
      "perigee_km": 538.9537085510356,
      "latitude_deg": -4.959756781835833e-05,
      "longitude_deg": -179.0130013900073,
      "height_km": 540.6427731179575,
      "semi_major_axis_km": 6917.902870348014,
      "eccentricity": 0.0001174,
      "inclination_deg": 53.2173,
      "raan_deg": 233.1634,
      "arg_perigee_deg": 88.6557,
      "mean_anomaly_deg": 271.4569,
      "mean_motion_rev_day": 15.08832645
    },
    {
      "epoch": "2026-05-13T23:11:20.233824Z",
      "apogee_km": 540.4160232960567,
      "perigee_km": 539.02581056907,
      "latitude_deg": 5.17751492319699e-05,
      "longitude_deg": 11.528347541646603,
      "height_km": 540.7058813506225,
      "semi_major_axis_km": 6917.857916932563,
      "eccentricity": 0.00010048,
      "inclination_deg": 53.2175,
      "raan_deg": 231.0814,
      "arg_perigee_deg": 97.3362,
      "mean_anomaly_deg": 262.7745,
      "mean_motion_rev_day": 15.08847352
    },
    {
      "epoch": "2026-05-14T13:29:49.093728Z",
      "apogee_km": 540.612091013325,
      "perigee_km": 538.9064145132452,
      "latitude_deg": -2.5587701395520332e-05,
      "longitude_deg": 153.644831192848,
      "height_km": 540.6272755097538,
      "semi_major_axis_km": 6917.896252763285,
      "eccentricity": 0.00012328,
      "inclination_deg": 53.2176,
      "raan_deg": 228.4058,
      "arg_perigee_deg": 88.1264,
      "mean_anomaly_deg": 271.9869,
      "mean_motion_rev_day": 15.0883481
    },
    {
      "epoch": "2026-05-16T17:57:33.405120Z",
      "apogee_km": 540.6092588871552,
      "perigee_km": 538.9531092738862,
      "latitude_deg": -2.2168813005417446e-05,
      "longitude_deg": 74.74325021884243,
      "height_km": 540.680012493245,
      "semi_major_axis_km": 6917.91818408052,
      "eccentricity": 0.0001197,
      "inclination_deg": 53.2161,
      "raan_deg": 218.5934,
      "arg_perigee_deg": 90.2102,
      "mean_anomaly_deg": 269.9027,
      "mean_motion_rev_day": 15.08827635
    }
  ]
}